[{"OBJECT_NAME":"COSMOS 2242","OBJECT_ID":"1993-024A","EPOCH":"2026-03-03T16:26:35.705472","MEAN_MOTION":14.96519769,"ECCENTRICITY":0.00155921,"INCLINATION":82.5156,"RA_OF_ASC_NODE":272.4617,"ARG_OF_PERICENTER":330.3518,"MEAN_ANOMALY":29.6819,"EPHEMERIS_TYPE":0,"CLASSIFICATION_TYPE":"U","NORAD_CAT_ID":22626,"ELEMENT_SET_NO":999,"REV_AT_EPOCH":77949,"BSTAR":0.00018658239,"MEAN_MOTION_DOT":2.15e-5,"MEAN_MOTION_DDOT":0},{"OBJECT_NAME":"SL-16 R/B","OBJECT_ID":"1993-059B","EPOCH":"2026-03-03T19:55:47.102592","MEAN_MOTION":14.17232219,"ECCENTRICITY":0.00187956,"INCLINATION":70.992,"RA_OF_ASC_NODE":23.4812,"ARG_OF_PERICENTER":224.8484,"MEAN_ANOMALY":135.1121,"EPHEMERIS_TYPE":0,"CLASSIFICATION_TYPE":"U","NORAD_CAT_ID":22803,"ELEMENT_SET_NO":999,"REV_AT_EPOCH":67870,"BSTAR":3.4040923e-5,"MEAN_MOTION_DOT":2.1e-7,"MEAN_MOTION_DDOT":0},{"OBJECT_NAME":"ARIANE 40 R/B","OBJECT_ID":"1993-061H","EPOCH":"2026-03-03T18:18:41.116032","MEAN_MOTION":14.3285742,"ECCENTRICITY":0.00096482,"INCLINATION":98.493,"RA_OF_ASC_NODE":131.7675,"ARG_OF_PERICENTER":304.7167,"MEAN_ANOMALY":55.3108,"EPHEMERIS_TYPE":0,"CLASSIFICATION_TYPE":"U","NORAD_CAT_ID":22830,"ELEMENT_SET_NO":999,"REV_AT_EPOCH":69325,"BSTAR":0.00012000698,"MEAN_MOTION_DOT":2.84e-6,"MEAN_MOTION_DDOT":0},{"OBJECT_NAME":"COSMOS 2278","OBJECT_ID":"1994-023A","EPOCH":"2026-03-03T19:09:39.442752","MEAN_MOTION":14.14375747,"ECCENTRICITY":0.00076559,"INCLINATION":71.0542,"RA_OF_ASC_NODE":187.4212,"ARG_OF_PERICENTER":25.2253,"MEAN_ANOMALY":334.9242,"EPHEMERIS_TYPE":0,"CLASSIFICATION_TYPE":"U","NORAD_CAT_ID":23087,"ELEMENT_SET_NO":999,"REV_AT_EPOCH":64397,"BSTAR":0.00018961696,"MEAN_MOTION_DOT":3.16e-6,"MEAN_MOTION_DDOT":0},{"OBJECT_NAME":"SL-16 R/B","OBJECT_ID":"1994-023B","EPOCH":"2026-03-03T11:51:23.974272","MEAN_MOTION":14.15013435,"ECCENTRICITY":0.00056058,"INCLINATION":70.9987,"RA_OF_ASC_NODE":83.8998,"ARG_OF_PERICENTER":291.6296,"MEAN_ANOMALY":68.4229,"EPHEMERIS_TYPE":0,"CLASSIFICATION_TYPE":"U","NORAD_CAT_ID":23088,"ELEMENT_SET_NO":999,"REV_AT_EPOCH":64521,"BSTAR":-2.3975063e-5,"MEAN_MOTION_DOT":-9.4e-7,"MEAN_MOTION_DDOT":0},{"OBJECT_NAME":"SL-16 R/B","OBJECT_ID":"1994-074B","EPOCH":"2026-03-03T15:33:33.346368","MEAN_MOTION":14.79399863,"ECCENTRICITY":0.0005388,"INCLINATION":97.7117,"RA_OF_ASC_NODE":93.7106,"ARG_OF_PERICENTER":233.8032,"MEAN_ANOMALY":239.3935,"EPHEMERIS_TYPE":0,"CLASSIFICATION_TYPE":"U","NORAD_CAT_ID":23343,"ELEMENT_SET_NO":999,"REV_AT_EPOCH":68635,"BSTAR":9.5484e-5,"MEAN_MOTION_DOT":6.63e-6,"MEAN_MOTION_DDOT":0},{"OBJECT_NAME":"SL-16 R/B","OBJECT_ID":"1994-077B","EPOCH":"2026-03-03T19:57:11.063520","MEAN_MOTION":14.15562239,"ECCENTRICITY":0.00034243,"INCLINATION":70.9851,"RA_OF_ASC_NODE":4.8124,"ARG_OF_PERICENTER":220.3517,"MEAN_ANOMALY":139.7353,"EPHEMERIS_TYPE":0,"CLASSIFICATION_TYPE":"U","NORAD_CAT_ID":23405,"ELEMENT_SET_NO":999,"REV_AT_EPOCH":61540,"BSTAR":-9.8773014e-5,"MEAN_MOTION_DOT":-2.41e-6,"MEAN_MOTION_DDOT":0},{"OBJECT_NAME":"ARIANE 40+ R/B","OBJECT_ID":"1995-021B","EPOCH":"2026-03-03T18:44:03.467616","MEAN_MOTION":14.39767523,"ECCENTRICITY":0.00073854,"INCLINATION":98.4509,"RA_OF_ASC_NODE":134.343,"ARG_OF_PERICENTER":152.3208,"MEAN_ANOMALY":320.1378,"EPHEMERIS_TYPE":0,"CLASSIFICATION_TYPE":"U","NORAD_CAT_ID":23561,"ELEMENT_SET_NO":999,"REV_AT_EPOCH":61839,"BSTAR":0.00014194578,"MEAN_MOTION_DOT":4.02e-6,"MEAN_MOTION_DDOT":0},{"OBJECT_NAME":"SL-16 R/B","OBJECT_ID":"1995-058B","EPOCH":"2026-03-03T18:25:05.075040","MEAN_MOTION":14.15492756,"ECCENTRICITY":0.00110132,"INCLINATION":71.0211,"RA_OF_ASC_NODE":192.6874,"ARG_OF_PERICENTER":136.2562,"MEAN_ANOMALY":223.9436,"EPHEMERIS_TYPE":0,"CLASSIFICATION_TYPE":"U","NORAD_CAT_ID":23705,"ELEMENT_SET_NO":999,"REV_AT_EPOCH":56701,"BSTAR":2.0758087e-5,"MEAN_MOTION_DOT":-7.0e-8,"MEAN_MOTION_DDOT":0},{"OBJECT_NAME":"SL-16 R/B","OBJECT_ID":"1996-051B","EPOCH":"2026-03-03T19:00:36.313344","MEAN_MOTION":14.12413839,"ECCENTRICITY":0.00156098,"INCLINATION":70.7596,"RA_OF_ASC_NODE":187.7206,"ARG_OF_PERICENTER":156.7831,"MEAN_ANOMALY":203.3997,"EPHEMERIS_TYPE":0,"CLASSIFICATION_TYPE":"U","NORAD_CAT_ID":24298,"ELEMENT_SET_NO":999,"REV_AT_EPOCH":52081,"BSTAR":7.6456454e-5,"MEAN_MOTION_DOT":9.2e-7,"MEAN_MOTION_DDOT":0},{"OBJECT_NAME":"ORBVIEW 2 (SEASTAR)","OBJECT_ID":"1997-037A","EPOCH":"2026-03-03T21:52:26.670720","MEAN_MOTION":14.35489946,"ECCENTRICITY":0.00031785,"INCLINATION":98.8555,"RA_OF_ASC_NODE":227.0704,"ARG_OF_PERICENTER":83.5626,"MEAN_ANOMALY":276.592,"EPHEMERIS_TYPE":0,"CLASSIFICATION_TYPE":"U","NORAD_CAT_ID":24883,"ELEMENT_SET_NO":999,"REV_AT_EPOCH":50764,"BSTAR":0.00017512395,"MEAN_MOTION_DOT":4.57e-6,"MEAN_MOTION_DDOT":0},{"OBJECT_NAME":"SL-16 R/B","OBJECT_ID":"1998-043G","EPOCH":"2026-03-03T20:06:32.453568","MEAN_MOTION":14.26048201,"ECCENTRICITY":0.00104843,"INCLINATION":98.8245,"RA_OF_ASC_NODE":16.1602,"ARG_OF_PERICENTER":36.4826,"MEAN_ANOMALY":323.7066,"EPHEMERIS_TYPE":0,"CLASSIFICATION_TYPE":"U","NORAD_CAT_ID":25400,"ELEMENT_SET_NO":999,"REV_AT_EPOCH":43815,"BSTAR":5.4581362e-5,"MEAN_MOTION_DOT":8.5e-7,"MEAN_MOTION_DDOT":0},{"OBJECT_NAME":"SL-16 R/B","OBJECT_ID":"1998-045B","EPOCH":"2026-03-03T18:45:01.037664","MEAN_MOTION":14.1618942,"ECCENTRICITY":0.00063946,"INCLINATION":71.0112,"RA_OF_ASC_NODE":193.9979,"ARG_OF_PERICENTER":17.0539,"MEAN_ANOMALY":343.0798,"EPHEMERIS_TYPE":0,"CLASSIFICATION_TYPE":"U","NORAD_CAT_ID":25407,"ELEMENT_SET_NO":999,"REV_AT_EPOCH":42626,"BSTAR":-8.0139162e-5,"MEAN_MOTION_DOT":-2.06e-6,"MEAN_MOTION_DDOT":0},{"OBJECT_NAME":"ISS (ZARYA)","OBJECT_ID":"1998-067A","EPOCH":"2026-03-03T21:34:02.527104","MEAN_MOTION":15.48428601,"ECCENTRICITY":0.00082081,"INCLINATION":51.6318,"RA_OF_ASC_NODE":100.9868,"ARG_OF_PERICENTER":154.1881,"MEAN_ANOMALY":205.9518,"EPHEMERIS_TYPE":0,"CLASSIFICATION_TYPE":"U","NORAD_CAT_ID":25544,"ELEMENT_SET_NO":999,"REV_AT_EPOCH":55543,"BSTAR":0.00019499392,"MEAN_MOTION_DOT":0.00010104,"MEAN_MOTION_DDOT":0},{"OBJECT_NAME":"CZ-4B R/B","OBJECT_ID":"1999-025C","EPOCH":"2026-03-03T22:49:01.649856","MEAN_MOTION":14.18263985,"ECCENTRICITY":0.00370705,"INCLINATION":98.6638,"RA_OF_ASC_NODE":107.368,"ARG_OF_PERICENTER":3.1927,"MEAN_ANOMALY":56.3674,"EPHEMERIS_TYPE":0,"CLASSIFICATION_TYPE":"U","NORAD_CAT_ID":25732,"ELEMENT_SET_NO":999,"REV_AT_EPOCH":38735,"BSTAR":6.0489725e-5,"MEAN_MOTION_DOT":8.2e-7,"MEAN_MOTION_DDOT":0},{"OBJECT_NAME":"OKEAN-O","OBJECT_ID":"1999-039A","EPOCH":"2026-03-03T18:30:42.824736","MEAN_MOTION":14.8032468,"ECCENTRICITY":0.00014418,"INCLINATION":97.9454,"RA_OF_ASC_NODE":122.7226,"ARG_OF_PERICENTER":71.0454,"MEAN_ANOMALY":289.0914,"EPHEMERIS_TYPE":0,"CLASSIFICATION_TYPE":"U","NORAD_CAT_ID":25860,"ELEMENT_SET_NO":999,"REV_AT_EPOCH":43351,"BSTAR":0.00013097265,"MEAN_MOTION_DOT":9.46e-6,"MEAN_MOTION_DDOT":0},{"OBJECT_NAME":"SL-16 R/B","OBJECT_ID":"1999-039B","EPOCH":"2026-03-03T18:09:44.982432","MEAN_MOTION":14.81722059,"ECCENTRICITY":0.00134462,"INCLINATION":97.9978,"RA_OF_ASC_NODE":121.862,"ARG_OF_PERICENTER":277.3941,"MEAN_ANOMALY":82.5744,"EPHEMERIS_TYPE":0,"CLASSIFICATION_TYPE":"U","NORAD_CAT_ID":25861,"ELEMENT_SET_NO":999,"REV_AT_EPOCH":43598,"BSTAR":0.0001077735,"MEAN_MOTION_DOT":7.96e-6,"MEAN_MOTION_DDOT":0}]
